{
  "type": "FeatureCollection",
  "features": [
    {
      "type": "Feature",
      "properties": {
        "name": "Pemukiman Warga Kali Anyar"
      },
      "geometry": {
        "coordinates": [106.79808154247416, -6.156730766483946],
        "type": "Point"
      },
      "id": 0
    },
    {
      "type": "Feature",
      "properties": {
        "name": "Balai Pertemuan RW 03 Kali Anyar V"
      },
      "geometry": {
        "coordinates": [106.79788028011603, -6.157392645714637],
        "type": "Point"
      },
      "id": 1
    },
    {
      "type": "Feature",
      "properties": {
        "name": "Sungai Kali Anyar"
      },
      "geometry": {
        "coordinates": [106.79625880086633, -6.156737738401304],
        "type": "Point"
      },
      "id": 2
    },
    {
      "type": "Feature",
      "properties": {
        "name": "jalanan umum"
      },
      "geometry": {
        "coordinates": [106.79583726758511, -6.157292449163549],
        "type": "Point"
      },
      "id": 3
    },
    {
      "type": "Feature",
      "properties": {
        "name": "alfamart"
      },
      "geometry": {
        "coordinates": [106.7954653743405, -6.156617320922479],
        "type": "Point"
      },
      "id": 4
    },
    {
      "type": "Feature",
      "properties": {},
      "geometry": {
        "coordinates": [
          [106.7954638264664, -6.156614129104611],
          [106.79583837149437, -6.157290627769953],
          [106.79625973585462, -6.156725844202612]
        ],
        "type": "LineString"
      }
    },
    {
      "type": "Feature",
      "properties": {
        "name": "perumahan warga"
      },
      "geometry": {
        "coordinates": [106.79718061432357, -6.156242196502973],
        "type": "Point"
      },
      "id": 6
    },
    {
      "type": "Feature",
      "properties": {},
      "geometry": {
        "coordinates": [
          [106.79547802571278, -6.156573709485471],
          [106.79717766569883, -6.156230461158529],
          [106.79808185929244, -6.156727518545765],
          [106.7978812080475, -6.157396411546941],
          [106.79625047735766, -6.156718354596421],
          [106.79625047735766, -6.156667788728257]
        ],
        "type": "LineString"
      }
    }
  ]
}
